CCSDS_OMM_VERS = 2.0
CREATION_DATE  = 
ORIGINATOR     = 

OBJECT_NAME    = UNKNOWN
OBJECT_ID      = 
CENTER_NAME    = EARTH
REF_FRAME      = TEME
TIME_SYSTEM    = UTC
MEAN_ELEMENT_THEORY = SGP/SGP4

EPOCH          = 2026-03-17T08:51:53.293248
MEAN_MOTION    = 12.81405994
ECCENTRICITY   = .0145223
INCLINATION    = 56.4331
RA_OF_ASC_NODE = 305.4817
ARG_OF_PERICENTER = 269.3194
MEAN_ANOMALY   = 89.1090

EPHEMERIS_TYPE = 0
CLASSIFICATION_TYPE = U
NORAD_CAT_ID   = 81605
ELEMENT_SET_NO = 999
REV_AT_EPOCH   = 19833
BSTAR          = -.33993E-2
MEAN_MOTION_DOT = -.929E-5
MEAN_MOTION_DDOT = 0

CCSDS_OMM_VERS = 2.0
CREATION_DATE  = 
ORIGINATOR     = 

OBJECT_NAME    = UNKNOWN
OBJECT_ID      = 
CENTER_NAME    = EARTH
REF_FRAME      = TEME
TIME_SYSTEM    = UTC
MEAN_ELEMENT_THEORY = SGP/SGP4

EPOCH          = 2026-03-16T10:42:56.822400
MEAN_MOTION    = 12.38268946
ECCENTRICITY   = .0356281
INCLINATION    = 101.8519
RA_OF_ASC_NODE = 73.4821
ARG_OF_PERICENTER = 334.5803
MEAN_ANOMALY   = 23.8105

EPHEMERIS_TYPE = 0
CLASSIFICATION_TYPE = U
NORAD_CAT_ID   = 81614
ELEMENT_SET_NO = 999
REV_AT_EPOCH   = 54957
BSTAR          = .33317E-1
MEAN_MOTION_DOT = .5373E-4
MEAN_MOTION_DDOT = 0

CCSDS_OMM_VERS = 2.0
CREATION_DATE  = 
ORIGINATOR     = 

OBJECT_NAME    = UNKNOWN
OBJECT_ID      = 
CENTER_NAME    = EARTH
REF_FRAME      = TEME
TIME_SYSTEM    = UTC
MEAN_ELEMENT_THEORY = SGP/SGP4

EPOCH          = 2026-03-16T10:17:30.008256
MEAN_MOTION    = 13.34508440
ECCENTRICITY   = .0766298
INCLINATION    = 65.8287
RA_OF_ASC_NODE = 203.7482
ARG_OF_PERICENTER = 92.7114
MEAN_ANOMALY   = 276.1803

EPHEMERIS_TYPE = 0
CLASSIFICATION_TYPE = U
NORAD_CAT_ID   = 81615
ELEMENT_SET_NO = 999
REV_AT_EPOCH   = 59536
BSTAR          = .69671E-3
MEAN_MOTION_DOT = .1876E-4
MEAN_MOTION_DDOT = 0

CCSDS_OMM_VERS = 2.0
CREATION_DATE  = 
ORIGINATOR     = 

OBJECT_NAME    = UNKNOWN
OBJECT_ID      = 
CENTER_NAME    = EARTH
REF_FRAME      = TEME
TIME_SYSTEM    = UTC
MEAN_ELEMENT_THEORY = SGP/SGP4

EPOCH          = 2026-03-16T21:36:24.720768
MEAN_MOTION    = 12.57611972
ECCENTRICITY   = .0031395
INCLINATION    = 101.2692
RA_OF_ASC_NODE = 251.2784
ARG_OF_PERICENTER = 56.3330
MEAN_ANOMALY   = 304.0734

EPHEMERIS_TYPE = 0
CLASSIFICATION_TYPE = U
NORAD_CAT_ID   = 81617
ELEMENT_SET_NO = 999
REV_AT_EPOCH   = 56494
BSTAR          = .2353E-2
MEAN_MOTION_DOT = .354E-5
MEAN_MOTION_DDOT = 0

CCSDS_OMM_VERS = 2.0
CREATION_DATE  = 
ORIGINATOR     = 

OBJECT_NAME    = UNKNOWN
OBJECT_ID      = 
CENTER_NAME    = EARTH
REF_FRAME      = TEME
TIME_SYSTEM    = UTC
MEAN_ELEMENT_THEORY = SGP/SGP4

EPOCH          = 2026-02-26T01:53:09.671424
MEAN_MOTION    = 14.72174479
ECCENTRICITY   = .0063505
INCLINATION    = 66.9770
RA_OF_ASC_NODE = 318.5702
ARG_OF_PERICENTER = 176.9023
MEAN_ANOMALY   = 183.2505

EPHEMERIS_TYPE = 0
CLASSIFICATION_TYPE = U
NORAD_CAT_ID   = 81624
ELEMENT_SET_NO = 999
REV_AT_EPOCH   = 65079
BSTAR          = .72056E-3
MEAN_MOTION_DOT = .4588E-4
MEAN_MOTION_DDOT = 0

CCSDS_OMM_VERS = 2.0
CREATION_DATE  = 
ORIGINATOR     = 

OBJECT_NAME    = UNKNOWN
OBJECT_ID      = 
CENTER_NAME    = EARTH
REF_FRAME      = TEME
TIME_SYSTEM    = UTC
MEAN_ELEMENT_THEORY = SGP/SGP4

EPOCH          = 2026-03-16T21:07:24.585024
MEAN_MOTION    = 12.57310794
ECCENTRICITY   = .097977
INCLINATION    = 65.8249
RA_OF_ASC_NODE = 299.4762
ARG_OF_PERICENTER = 39.2134
MEAN_ANOMALY   = 327.5840

EPHEMERIS_TYPE = 0
CLASSIFICATION_TYPE = U
NORAD_CAT_ID   = 81640
ELEMENT_SET_NO = 999
REV_AT_EPOCH   = 52191
BSTAR          = .35412E-3
MEAN_MOTION_DOT = .33E-5
MEAN_MOTION_DDOT = 0

CCSDS_OMM_VERS = 2.0
CREATION_DATE  = 
ORIGINATOR     = 

OBJECT_NAME    = UNKNOWN
OBJECT_ID      = 
CENTER_NAME    = EARTH
REF_FRAME      = TEME
TIME_SYSTEM    = UTC
MEAN_ELEMENT_THEORY = SGP/SGP4

EPOCH          = 2026-03-16T14:24:03.055104
MEAN_MOTION    = 13.44511074
ECCENTRICITY   = .0363675
INCLINATION    = 102.1445
RA_OF_ASC_NODE = 348.5584
ARG_OF_PERICENTER = 149.7356
MEAN_ANOMALY   = 332.7157

EPHEMERIS_TYPE = 0
CLASSIFICATION_TYPE = U
NORAD_CAT_ID   = 81652
ELEMENT_SET_NO = 999
REV_AT_EPOCH   = 59126
BSTAR          = .7007E-3
MEAN_MOTION_DOT = .549E-5
MEAN_MOTION_DDOT = 0

CCSDS_OMM_VERS = 2.0
CREATION_DATE  = 
ORIGINATOR     = 

OBJECT_NAME    = UNKNOWN
OBJECT_ID      = 
CENTER_NAME    = EARTH
REF_FRAME      = TEME
TIME_SYSTEM    = UTC
MEAN_ELEMENT_THEORY = SGP/SGP4

EPOCH          = 2026-03-16T19:24:24.611616
MEAN_MOTION    = 14.48594138
ECCENTRICITY   = .0014467
INCLINATION    = 74.0375
RA_OF_ASC_NODE = 220.4375
ARG_OF_PERICENTER = 131.0265
MEAN_ANOMALY   = 229.2147

EPHEMERIS_TYPE = 0
CLASSIFICATION_TYPE = U
NORAD_CAT_ID   = 81667
ELEMENT_SET_NO = 999
REV_AT_EPOCH   = 47026
BSTAR          = .63668E-3
MEAN_MOTION_DOT = .2371E-4
MEAN_MOTION_DDOT = 0

CCSDS_OMM_VERS = 2.0
CREATION_DATE  = 
ORIGINATOR     = 

OBJECT_NAME    = UNKNOWN
OBJECT_ID      = 
CENTER_NAME    = EARTH
REF_FRAME      = TEME
TIME_SYSTEM    = UTC
MEAN_ELEMENT_THEORY = SGP/SGP4

EPOCH          = 2026-03-11T13:58:28.329312
MEAN_MOTION    = 14.10159484
ECCENTRICITY   = .002382
INCLINATION    = 66.8276
RA_OF_ASC_NODE = 140.5396
ARG_OF_PERICENTER = 174.4973
MEAN_ANOMALY   = 255.3823

EPHEMERIS_TYPE = 0
CLASSIFICATION_TYPE = U
NORAD_CAT_ID   = 81674
ELEMENT_SET_NO = 999
REV_AT_EPOCH   = 62624
BSTAR          = .77691E-3
MEAN_MOTION_DOT = .1299E-4
MEAN_MOTION_DDOT = 0

CCSDS_OMM_VERS = 2.0
CREATION_DATE  = 
ORIGINATOR     = 

OBJECT_NAME    = UNKNOWN
OBJECT_ID      = 
CENTER_NAME    = EARTH
REF_FRAME      = TEME
TIME_SYSTEM    = UTC
MEAN_ELEMENT_THEORY = SGP/SGP4

EPOCH          = 2026-03-17T14:33:36.257760
MEAN_MOTION    = 14.58139086
ECCENTRICITY   = .0022466
INCLINATION    = 81.2178
RA_OF_ASC_NODE = 195.2702
ARG_OF_PERICENTER = 8.2342
MEAN_ANOMALY   = 351.9219

EPHEMERIS_TYPE = 0
CLASSIFICATION_TYPE = U
NORAD_CAT_ID   = 81683
ELEMENT_SET_NO = 999
REV_AT_EPOCH   = 64968
BSTAR          = .59762E-3
MEAN_MOTION_DOT = .2777E-4
MEAN_MOTION_DDOT = 0

CCSDS_OMM_VERS = 2.0
CREATION_DATE  = 
ORIGINATOR     = 

OBJECT_NAME    = UNKNOWN
OBJECT_ID      = 
CENTER_NAME    = EARTH
REF_FRAME      = TEME
TIME_SYSTEM    = UTC
MEAN_ELEMENT_THEORY = SGP/SGP4

EPOCH          = 2026-03-16T20:54:18.886752
MEAN_MOTION    = 12.26085756
ECCENTRICITY   = .0378192
INCLINATION    = 101.1008
RA_OF_ASC_NODE = 132.0166
ARG_OF_PERICENTER = 263.5501
MEAN_ANOMALY   = 92.2374

EPHEMERIS_TYPE = 0
CLASSIFICATION_TYPE = U
NORAD_CAT_ID   = 81693
ELEMENT_SET_NO = 999
REV_AT_EPOCH   = 97930
BSTAR          = .10643E-1
MEAN_MOTION_DOT = .1462E-4
MEAN_MOTION_DDOT = 0

CCSDS_OMM_VERS = 2.0
CREATION_DATE  = 
ORIGINATOR     = 

OBJECT_NAME    = UNKNOWN
OBJECT_ID      = 
CENTER_NAME    = EARTH
REF_FRAME      = TEME
TIME_SYSTEM    = UTC
MEAN_ELEMENT_THEORY = SGP/SGP4

EPOCH          = 2026-03-17T13:34:27.812352
MEAN_MOTION    = 14.40905900
ECCENTRICITY   = .0002964
INCLINATION    = 71.0015
RA_OF_ASC_NODE = 179.8712
ARG_OF_PERICENTER = 49.6919
MEAN_ANOMALY   = 310.4476

EPHEMERIS_TYPE = 0
CLASSIFICATION_TYPE = U
NORAD_CAT_ID   = 81745
ELEMENT_SET_NO = 999
REV_AT_EPOCH   = 64340
BSTAR          = .59569E-3
MEAN_MOTION_DOT = .1862E-4
MEAN_MOTION_DDOT = 0

